[{"OBJECT_NAME":"STARLINK-1284","OBJECT_ID":"2020-019AG","EPOCH":"2026-01-15T04:00:03.000096","MEAN_MOTION":15.281449,"ECCENTRICITY":0.0001592,"INCLINATION":53.0551,"RA_OF_ASC_NODE":26.1361,"ARG_OF_PERICENTER":101.0946,"MEAN_ANOMALY":51.2258,"EPHEMERIS_TYPE":0,"CLASSIFICATION_TYPE":"U","NORAD_CAT_ID":45390,"ELEMENT_SET_NO":999,"REV_AT_EPOCH":567,"BSTAR":0.044076,"MEAN_MOTION_DOT":0.0134846,"MEAN_MOTION_DDOT":0},{"OBJECT_NAME":"STARLINK-1297","OBJECT_ID":"2020-019AM","EPOCH":"2026-01-15T04:00:03.000096","MEAN_MOTION":15.25616945,"ECCENTRICITY":0.0001721,"INCLINATION":53.0539,"RA_OF_ASC_NODE":26.3127,"ARG_OF_PERICENTER":96.7322,"MEAN_ANOMALY":123.4546,"EPHEMERIS_TYPE":0,"CLASSIFICATION_TYPE":"U","NORAD_CAT_ID":45395,"ELEMENT_SET_NO":999,"REV_AT_EPOCH":581,"BSTAR":0.00070476,"MEAN_MOTION_DOT":0.00017852,"MEAN_MOTION_DDOT":0},{"OBJECT_NAME":"STARLINK-1307","OBJECT_ID":"2020-019AP","EPOCH":"2026-01-15T04:00:03.000096","MEAN_MOTION":15.28427233,"ECCENTRICITY":0.0001488,"INCLINATION":53.06,"RA_OF_ASC_NODE":25.9919,"ARG_OF_PERICENTER":85.461,"MEAN_ANOMALY":339.4112,"EPHEMERIS_TYPE":0,"CLASSIFICATION_TYPE":"U","NORAD_CAT_ID":45397,"ELEMENT_SET_NO":999,"REV_AT_EPOCH":581,"BSTAR":0.0093075,"MEAN_MOTION_DOT":0.0027043,"MEAN_MOTION_DDOT":0},{"OBJECT_NAME":"STARLINK-1255","OBJECT_ID":"2020-019AR","EPOCH":"2026-01-15T03:00:49.682592","MEAN_MOTION":15.42667261,"ECCENTRICITY":0.0005977,"INCLINATION":53.048,"RA_OF_ASC_NODE":358.5693,"ARG_OF_PERICENTER":58.1036,"MEAN_ANOMALY":302.0549,"EPHEMERIS_TYPE":0,"CLASSIFICATION_TYPE":"U","NORAD_CAT_ID":45399,"ELEMENT_SET_NO":999,"REV_AT_EPOCH":32214,"BSTAR":0.00021885,"MEAN_MOTION_DOT":9.287e-5,"MEAN_MOTION_DDOT":0},{"OBJECT_NAME":"STARLINK-1260","OBJECT_ID":"2020-019AW","EPOCH":"2026-01-15T04:10:58.640448","MEAN_MOTION":15.07108448,"ECCENTRICITY":0.0001806,"INCLINATION":53.0571,"RA_OF_ASC_NODE":16.8509,"ARG_OF_PERICENTER":115.757,"MEAN_ANOMALY":244.3606,"EPHEMERIS_TYPE":0,"CLASSIFICATION_TYPE":"U","NORAD_CAT_ID":45404,"ELEMENT_SET_NO":999,"REV_AT_EPOCH":32179,"BSTAR":0.00607,"MEAN_MOTION_DOT":0.00093102,"MEAN_MOTION_DDOT":0},{"OBJECT_NAME":"STARLINK-1263","OBJECT_ID":"2020-019AX","EPOCH":"2026-01-15T03:49:43.461984","MEAN_MOTION":15.07040258,"ECCENTRICITY":0.0002022,"INCLINATION":53.0561,"RA_OF_ASC_NODE":16.9166,"ARG_OF_PERICENTER":66.7424,"MEAN_ANOMALY":293.3778,"EPHEMERIS_TYPE":0,"CLASSIFICATION_TYPE":"U","NORAD_CAT_ID":45405,"ELEMENT_SET_NO":999,"REV_AT_EPOCH":32179,"BSTAR":0.0052245,"MEAN_MOTION_DOT":0.00079795,"MEAN_MOTION_DDOT":0},{"OBJECT_NAME":"STARLINK-1265","OBJECT_ID":"2020-019AY","EPOCH":"2026-01-14T16:52:35.050080","MEAN_MOTION":15.06395725,"ECCENTRICITY":0.000135,"INCLINATION":53.0557,"RA_OF_ASC_NODE":18.9739,"ARG_OF_PERICENTER":89.1789,"MEAN_ANOMALY":270.9355,"EPHEMERIS_TYPE":0,"CLASSIFICATION_TYPE":"U","NORAD_CAT_ID":45406,"ELEMENT_SET_NO":999,"REV_AT_EPOCH":32172,"BSTAR":0.000163,"MEAN_MOTION_DOT":2.147e-5,"MEAN_MOTION_DDOT":0},{"OBJECT_NAME":"STARLINK-1278","OBJECT_ID":"2020-019BA","EPOCH":"2026-01-15T00:22:40.603008","MEAN_MOTION":15.44479698,"ECCENTRICITY":0.0005123,"INCLINATION":53.0517,"RA_OF_ASC_NODE":28.0683,"ARG_OF_PERICENTER":315.2195,"MEAN_ANOMALY":44.8397,"EPHEMERIS_TYPE":0,"CLASSIFICATION_TYPE":"U","NORAD_CAT_ID":45408,"ELEMENT_SET_NO":999,"REV_AT_EPOCH":32163,"BSTAR":0.00058542,"MEAN_MOTION_DOT":0.00027234,"MEAN_MOTION_DDOT":0},{"OBJECT_NAME":"STARLINK-1296","OBJECT_ID":"2020-019BE","EPOCH":"2026-01-15T04:00:03.000096","MEAN_MOTION":15.12342037,"ECCENTRICITY":0.0001376,"INCLINATION":53.0778,"RA_OF_ASC_NODE":16.7939,"ARG_OF_PERICENTER":130.1369,"MEAN_ANOMALY":259.0385,"EPHEMERIS_TYPE":0,"CLASSIFICATION_TYPE":"U","NORAD_CAT_ID":45412,"ELEMENT_SET_NO":999,"REV_AT_EPOCH":581,"BSTAR":4.6754e-5,"MEAN_MOTION_DOT":5.22e-6,"MEAN_MOTION_DDOT":0},{"OBJECT_NAME":"STARLINK-1298","OBJECT_ID":"2020-019BF","EPOCH":"2026-01-15T04:00:03.000096","MEAN_MOTION":15.71893858,"ECCENTRICITY":0.0008151,"INCLINATION":53.0437,"RA_OF_ASC_NODE":323.7396,"ARG_OF_PERICENTER":102.4313,"MEAN_ANOMALY":42.7144,"EPHEMERIS_TYPE":0,"CLASSIFICATION_TYPE":"U","NORAD_CAT_ID":45413,"ELEMENT_SET_NO":999,"REV_AT_EPOCH":599,"BSTAR":0.0012176,"MEAN_MOTION_DOT":0.00164526,"MEAN_MOTION_DDOT":0},{"OBJECT_NAME":"STARLINK-1309","OBJECT_ID":"2020-019BG","EPOCH":"2026-01-15T04:27:23.903712","MEAN_MOTION":15.0674147,"ECCENTRICITY":0.0002163,"INCLINATION":53.0559,"RA_OF_ASC_NODE":16.8056,"ARG_OF_PERICENTER":120.2376,"MEAN_ANOMALY":239.8827,"EPHEMERIS_TYPE":0,"CLASSIFICATION_TYPE":"U","NORAD_CAT_ID":45414,"ELEMENT_SET_NO":999,"REV_AT_EPOCH":32178,"BSTAR":0.0030224,"MEAN_MOTION_DOT":0.00045448,"MEAN_MOTION_DDOT":0},{"OBJECT_NAME":"STARLINK-1316","OBJECT_ID":"2020-019BH","EPOCH":"2026-01-15T03:29:24.674208","MEAN_MOTION":15.06471458,"ECCENTRICITY":0.0001697,"INCLINATION":53.0555,"RA_OF_ASC_NODE":16.9865,"ARG_OF_PERICENTER":105.89,"MEAN_ANOMALY":254.2277,"EPHEMERIS_TYPE":0,"CLASSIFICATION_TYPE":"U","NORAD_CAT_ID":45415,"ELEMENT_SET_NO":999,"REV_AT_EPOCH":32181,"BSTAR":0.00073247,"MEAN_MOTION_DOT":0.00010666,"MEAN_MOTION_DDOT":0},{"OBJECT_NAME":"STARLINK-1318","OBJECT_ID":"2020-019BJ","EPOCH":"2026-01-15T02:33:13.320288","MEAN_MOTION":15.7805495,"ECCENTRICITY":0.0005196,"INCLINATION":53.0451,"RA_OF_ASC_NODE":311.6879,"ARG_OF_PERICENTER":104.5892,"MEAN_ANOMALY":255.5704,"EPHEMERIS_TYPE":0,"CLASSIFICATION_TYPE":"U","NORAD_CAT_ID":45416,"ELEMENT_SET_NO":999,"REV_AT_EPOCH":32271,"BSTAR":0.0005796,"MEAN_MOTION_DOT":0.00101247,"MEAN_MOTION_DDOT":0},{"OBJECT_NAME":"STARLINK-1286","OBJECT_ID":"2020-019BK","EPOCH":"2026-01-15T01:00:41.227776","MEAN_MOTION":15.44705129,"ECCENTRICITY":0.0002259,"INCLINATION":53.0519,"RA_OF_ASC_NODE":27.632,"ARG_OF_PERICENTER":2.0571,"MEAN_ANOMALY":358.0444,"EPHEMERIS_TYPE":0,"CLASSIFICATION_TYPE":"U","NORAD_CAT_ID":45417,"ELEMENT_SET_NO":999,"REV_AT_EPOCH":32191,"BSTAR":0.00033527,"MEAN_MOTION_DOT":0.00015508,"MEAN_MOTION_DDOT":0},{"OBJECT_NAME":"STARLINK-1308","OBJECT_ID":"2020-019BM","EPOCH":"2026-01-15T04:00:03.000096","MEAN_MOTION":15.28543799,"ECCENTRICITY":0.0001056,"INCLINATION":53.055,"RA_OF_ASC_NODE":46.0598,"ARG_OF_PERICENTER":54.67,"MEAN_ANOMALY":305.3501,"EPHEMERIS_TYPE":0,"CLASSIFICATION_TYPE":"U","NORAD_CAT_ID":45419,"ELEMENT_SET_NO":999,"REV_AT_EPOCH":581,"BSTAR":0.054563,"MEAN_MOTION_DOT":0.01701746,"MEAN_MOTION_DDOT":0},{"OBJECT_NAME":"STARLINK-1329","OBJECT_ID":"2020-025A","EPOCH":"2026-01-15T03:27:59.215104","MEAN_MOTION":15.45266382,"ECCENTRICITY":0.000577,"INCLINATION":53.0557,"RA_OF_ASC_NODE":338.5038,"ARG_OF_PERICENTER":59.3349,"MEAN_ANOMALY":300.8225,"EPHEMERIS_TYPE":0,"CLASSIFICATION_TYPE":"U","NORAD_CAT_ID":45531,"ELEMENT_SET_NO":999,"REV_AT_EPOCH":31714,"BSTAR":0.0015121,"MEAN_MOTION_DOT":0.000734,"MEAN_MOTION_DDOT":0},{"OBJECT_NAME":"STARLINK-1338","OBJECT_ID":"2020-025B","EPOCH":"2026-01-15T02:19:53.385888","MEAN_MOTION":15.44058263,"ECCENTRICITY":0.0003514,"INCLINATION":53.0539,"RA_OF_ASC_NODE":341.622,"ARG_OF_PERICENTER":87.5138,"MEAN_ANOMALY":272.627,"EPHEMERIS_TYPE":0,"CLASSIFICATION_TYPE":"U","NORAD_CAT_ID":45532,"ELEMENT_SET_NO":999,"REV_AT_EPOCH":31709,"BSTAR":0.0013972,"MEAN_MOTION_DOT":0.00064957,"MEAN_MOTION_DDOT":0}]
