STARLINK-1284           
1 45390U 20019AG  26015.16670139  .01348460  00000+0  44076-1 0  9997
2 45390  53.0551  26.1361 0001592 101.0946  51.2258 15.28144900  5674
STARLINK-1297           
1 45395U 20019AM  26015.16670139  .00017852  00000+0  70476-3 0  9994
2 45395  53.0539  26.3127 0001721  96.7322 123.4546 15.25616945  5817
STARLINK-1307           
1 45397U 20019AP  26015.16670139  .00270430  00000+0  93075-2 0  9998
2 45397  53.0600  25.9919 0001488  85.4610 339.4112 15.28427233  5818
STARLINK-1255           
1 45399U 20019AR  26015.12557503  .00009287  00000+0  21885-3 0  9996
2 45399  53.0480 358.5693 0005977  58.1036 302.0549 15.42667261322147
STARLINK-1260           
1 45404U 20019AW  26015.17428982  .00093102  00000+0  60700-2 0  9993
2 45404  53.0571  16.8509 0001806 115.7570 244.3606 15.07108448321795
STARLINK-1263           
1 45405U 20019AX  26015.15953081  .00079795  00000+0  52245-2 0  9992
2 45405  53.0561  16.9166 0002022  66.7424 293.3778 15.07040258321797
STARLINK-1265           
1 45406U 20019AY  26014.70318345  .00002147  00000+0  16300-3 0  9991
2 45406  53.0557  18.9739 0001350  89.1789 270.9355 15.06395725321723
STARLINK-1278           
1 45408U 20019BA  26015.01574772  .00027234  00000+0  58542-3 0  9994
2 45408  53.0517  28.0683 0005123 315.2195  44.8397 15.44479698321635
STARLINK-1296           
1 45412U 20019BE  26015.16670139  .00000522  00000+0  46754-4 0  9993
2 45412  53.0778  16.7939 0001376 130.1369 259.0385 15.12342037  5817
STARLINK-1298           
1 45413U 20019BF  26015.16670139  .00164526  00000+0  12176-2 0  9998
2 45413  53.0437 323.7396 0008151 102.4313  42.7144 15.71893858  5993
STARLINK-1309           
1 45414U 20019BG  26015.18569333  .00045448  00000+0  30224-2 0  9999
2 45414  53.0559  16.8056 0002163 120.2376 239.8827 15.06741470321781
STARLINK-1316           
1 45415U 20019BH  26015.14542447  .00010666  00000+0  73247-3 0  9990
2 45415  53.0555  16.9865 0001697 105.8900 254.2277 15.06471458321810
STARLINK-1318           
1 45416U 20019BJ  26015.10640417  .00101247  00000+0  57960-3 0  9993
2 45416  53.0451 311.6879 0005196 104.5892 255.5704 15.78054950322712
STARLINK-1286           
1 45417U 20019BK  26015.04214384  .00015508  00000+0  33527-3 0  9994
2 45417  53.0519  27.6320 0002259   2.0571 358.0444 15.44705129321911
STARLINK-1308           
1 45419U 20019BM  26015.16670139  .01701746  00000+0  54563-1 0  9991
2 45419  53.0550  46.0598 0001056  54.6700 305.3501 15.28543799  5813
STARLINK-1329           
1 45531U 20025A   26015.14443536  .00073400  00000+0  15121-2 0  9996
2 45531  53.0557 338.5038 0005770  59.3349 300.8225 15.45266382317145
STARLINK-1338           
1 45532U 20025B   26015.09714567  .00064957  00000+0  13972-2 0  9995
2 45532  53.0539 341.6220 0003514  87.5138 272.6270 15.44058263317093
